SAR-LUPE 2              
1 31797U 07030A   26196.84179688  .00017935  00000+0  28232-3 0  9996
2 31797  98.1062 304.9243 0004824 200.3312 159.7748 15.53657548 61387
SAPPHIRE                
1 39088U 13009C   26196.81463937  .00000038  00000+0  28359-4 0  9997
2 39088  98.4274  15.5925 0011626 158.1333 202.0351 14.35247688700683
PRAETORIAN SDA_602      
1 65565U 25203A   26196.79675230  .00000026  00000+0  12550-4 0  9996
2 65565  81.3044 344.2792 0007080 116.2959 243.8926 13.83887892 42656
PRAETORIAN SDA_603      
1 65566U 25203B   26196.82500275  .00000565  00000+0  49779-3 0  9997
2 65566  81.3044 344.1750 0010811 113.2949 246.9347 13.83964464 42665
PRAETORIAN SDA_604      
1 65567U 25203C   26196.79064256  .00000022  00000+0  88110-5 0  9990
2 65567  81.3066 344.6632 0006588 120.0196 240.1614 13.83050029 42633
PRAETORIAN SDA_605      
1 65568U 25203D   26196.82260240  .00000030  00000+0  16793-4 0  9992
2 65568  81.3031 344.2741 0009326 111.7395 248.4754 13.83200048 42650
PRAETORIAN SDA_606      
1 65569U 25203E   26196.80777609  .00000025  00000+0  11974-4 0  9993
2 65569  81.3068 344.5260 0007183 114.6745 245.5160 13.83200092 42647
PRAETORIAN SDA_607      
1 65570U 25203F   26196.79788749  .00000093  00000+0  73025-4 0  9990
2 65570  81.3045 344.1532 0009975 113.2061 247.0147 13.83758574 42666
PRAETORIAN SDA_608      
1 65571U 25203G   26196.78038527  .00000032  00000+0  17762-4 0  9991
2 65571  81.3020 344.3343 0007071 118.8560 241.3306 13.83819455 42640
PRAETORIAN SDA_609      
1 65572U 25203H   26196.77719847  .00000079  00000+0  60093-4 0  9998
2 65572  81.3062 344.3154 0007920 113.0345 247.1648 13.84211713 42656
PRAETORIAN SDA_610      
1 65573U 25203J   26196.83472420  .00000045  00000+0  30078-4 0  9992
2 65573  81.3022 344.2472 0007803 118.2530 241.9415 13.83528212 42656
PRAETORIAN SDA_611      
1 65574U 25203K   26196.77140557  .00000305  00000+0  26672-3 0  9992
2 65574  81.3028 344.4881 0006671 122.3694 237.8109 13.83311324 42634
PRAETORIAN SDA_612      
1 65575U 25203L   26196.79759200  .00000085  00000+0  64094-4 0  9992
2 65575  81.3043 343.9807 0010399 113.6122 246.6128 13.85040929 42670
PRAETORIAN SDA_613      
1 65576U 25203M   26196.78938249  .00000036  00000+0  22224-4 0  9999
2 65576  81.3012 344.4913 0006784 113.5444 246.6425 13.82767720 42638
PRAETORIAN SDA_614      
1 65577U 25203N   26196.79217329  .00000021  00000+0  83206-5 0  9992
2 65577  81.3027 344.0705 0008230 111.8382 248.3651 13.84778556 42675
PRAETORIAN SDA_615      
1 65578U 25203P   26196.77609795  .00000143  00000+0  11692-3 0  9996
2 65578  81.3037 344.0675 0010147 112.3061 247.9173 13.84438534 42665
PRAETORIAN SDA_616      
1 65579U 25203Q   26196.84380280  .00000152  00000+0  12790-3 0  9990
2 65579  81.3075 344.5859 0006523 120.1601 240.0202 13.83270130 42647
PRAETORIAN SDA_617      
1 65580U 25203R   26196.79551466  .00000034  00000+0  20331-4 0  9992
2 65580  81.3051 344.4593 0008493 112.2530 247.9528 13.83152153 42649
PRAETORIAN SDA_618      
1 65581U 25203S   26196.74353537 -.00000231  00000+0 -21765-3 0  9999
2 65581  81.3033 344.0283 0010972 115.9485 244.2803 13.84224864 42664
PRAETORIAN SDA_619      
1 65582U 25203T   26196.79110913  .00000093  00000+0  72945-4 0  9995
2 65582  81.3057 344.3146 0009315 112.9149 247.2992 13.83805908 43289
PRAETORIAN SDA_620      
1 65583U 25203U   26196.82646576  .00000090  00000+0  71300-4 0  9990
2 65583  81.3042 344.3135 0008419 108.0346 252.1728 13.83207371 42653
PRAETORIAN SDA_621      
1 65584U 25203V   26196.79294729  .00000020  00000+0  67936-5 0  9990
2 65584  81.3034 344.2448 0008499 107.5383 252.6702 13.83803743 42656
PRAETORIAN SDA_601      
1 65585U 25203W   26196.77667324 -.00000109  00000+0 -11051-3 0  9999
2 65585  81.3057 344.5886 0006515 122.3695 237.8093 13.83170140 42633
VICTUS HAZE PUMA        
1 69646U 26142A   26195.78469194  .00001975  00000+0  92002-4 0  9995
2 69646  97.4467  93.0928 0025040 267.3590  92.4779 15.20845903  3866
