OBJECT_NAME,OBJECT_ID,EPOCH,MEAN_MOTION,ECCENTRICITY,INCLINATION,RA_OF_ASC_NODE,ARG_OF_PERICENTER,MEAN_ANOMALY,EPHEMERIS_TYPE,CLASSIFICATION_TYPE,NORAD_CAT_ID,ELEMENT_SET_NO,REV_AT_EPOCH,BSTAR,MEAN_MOTION_DOT,MEAN_MOTION_DDOT
SAR-LUPE 2,2007-030A,2026-07-15T20:12:11.250432,15.53657548,.0004824,98.1062,304.9243,200.3312,159.7748,0,U,31797,999,6138,.28232E-3,.17935E-3,0
SAPPHIRE,2013-009C,2026-07-15T19:33:04.841568,14.35247688,.0011626,98.4274,15.5925,158.1333,202.0351,0,U,39088,999,70068,.28359E-4,.38E-6,0
PRAETORIAN SDA_602,2025-203A,2026-07-15T19:07:19.398720,13.83887892,.000708,81.3044,344.2792,116.2959,243.8926,0,U,65565,999,4265,.1255E-4,.26E-6,0
PRAETORIAN SDA_603,2025-203B,2026-07-15T19:48:00.237600,13.83964464,.0010811,81.3044,344.1750,113.2949,246.9347,0,U,65566,999,4266,.49779E-3,.565E-5,0
PRAETORIAN SDA_604,2025-203C,2026-07-15T18:58:31.517184,13.83050029,.0006588,81.3066,344.6632,120.0196,240.1614,0,U,65567,999,4263,.8811E-5,.22E-6,0
PRAETORIAN SDA_605,2025-203D,2026-07-15T19:44:32.847360,13.83200048,.0009326,81.3031,344.2741,111.7395,248.4754,0,U,65568,999,4265,.16793E-4,.3E-6,0
PRAETORIAN SDA_606,2025-203E,2026-07-15T19:23:11.854176,13.83200092,.0007183,81.3068,344.5260,114.6745,245.5160,0,U,65569,999,4264,.11974E-4,.25E-6,0
PRAETORIAN SDA_607,2025-203F,2026-07-15T19:08:57.479136,13.83758574,.0009975,81.3045,344.1532,113.2061,247.0147,0,U,65570,999,4266,.73025E-4,.93E-6,0
PRAETORIAN SDA_608,2025-203G,2026-07-15T18:43:45.287328,13.83819455,.0007071,81.3020,344.3343,118.8560,241.3306,0,U,65571,999,4264,.17762E-4,.32E-6,0
PRAETORIAN SDA_609,2025-203H,2026-07-15T18:39:09.947808,13.84211713,.000792,81.3062,344.3154,113.0345,247.1648,0,U,65572,999,4265,.60093E-4,.79E-6,0
PRAETORIAN SDA_610,2025-203J,2026-07-15T20:02:00.170880,13.83528212,.0007803,81.3022,344.2472,118.2530,241.9415,0,U,65573,999,4265,.30078E-4,.45E-6,0
PRAETORIAN SDA_611,2025-203K,2026-07-15T18:30:49.441248,13.83311324,.0006671,81.3028,344.4881,122.3694,237.8109,0,U,65574,999,4263,.26672E-3,.305E-5,0
PRAETORIAN SDA_612,2025-203L,2026-07-15T19:08:31.948800,13.85040929,.0010399,81.3043,343.9807,113.6122,246.6128,0,U,65575,999,4267,.64094E-4,.85E-6,0
PRAETORIAN SDA_613,2025-203M,2026-07-15T18:56:42.647136,13.82767720,.0006784,81.3012,344.4913,113.5444,246.6425,0,U,65576,999,4263,.22224E-4,.36E-6,0
PRAETORIAN SDA_614,2025-203N,2026-07-15T19:00:43.772256,13.84778556,.000823,81.3027,344.0705,111.8382,248.3651,0,U,65577,999,4267,.83206E-5,.21E-6,0
PRAETORIAN SDA_615,2025-203P,2026-07-15T18:37:34.862880,13.84438534,.0010147,81.3037,344.0675,112.3061,247.9173,0,U,65578,999,4266,.11692E-3,.143E-5,0
PRAETORIAN SDA_616,2025-203Q,2026-07-15T20:15:04.561920,13.83270130,.0006523,81.3075,344.5859,120.1601,240.0202,0,U,65579,999,4264,.1279E-3,.152E-5,0
PRAETORIAN SDA_617,2025-203R,2026-07-15T19:05:32.466624,13.83152153,.0008493,81.3051,344.4593,112.2530,247.9528,0,U,65580,999,4264,.20331E-4,.34E-6,0
PRAETORIAN SDA_618,2025-203S,2026-07-15T17:50:41.455968,13.84224864,.0010972,81.3033,344.0283,115.9485,244.2803,0,U,65581,999,4266,-.21765E-3,-.231E-5,0
PRAETORIAN SDA_619,2025-203T,2026-07-15T18:59:11.828832,13.83805908,.0009315,81.3057,344.3146,112.9149,247.2992,0,U,65582,999,4328,.72945E-4,.93E-6,0
PRAETORIAN SDA_620,2025-203U,2026-07-15T19:50:06.641664,13.83207371,.0008419,81.3042,344.3135,108.0346,252.1728,0,U,65583,999,4265,.713E-4,.9E-6,0
PRAETORIAN SDA_621,2025-203V,2026-07-15T19:01:50.645856,13.83803743,.0008499,81.3034,344.2448,107.5383,252.6702,0,U,65584,999,4265,.67936E-5,.2E-6,0
PRAETORIAN SDA_601,2025-203W,2026-07-15T18:38:24.567936,13.83170140,.0006515,81.3057,344.5886,122.3695,237.8093,0,U,65585,999,4263,-.11051E-3,-.109E-5,0
VICTUS HAZE PUMA,2026-142A,2026-07-14T18:49:57.383616,15.20845903,.00250405,97.4467,93.0928,267.3590,92.4779,0,U,69646,999,386,.92001941E-4,.1975E-4,0
